[{"OBJECT_NAME":"KUIPER-00294","OBJECT_ID":"2026-072X","EPOCH":"2026-04-09T12:10:14.658240","MEAN_MOTION":15.36164003,"ECCENTRICITY":0.00098876,"INCLINATION":51.8673,"RA_OF_ASC_NODE":149.1185,"ARG_OF_PERICENTER":135.7594,"MEAN_ANOMALY":224.4184,"EPHEMERIS_TYPE":0,"CLASSIFICATION_TYPE":"U","NORAD_CAT_ID":68594,"ELEMENT_SET_NO":999,"REV_AT_EPOCH":81,"BSTAR":0.00069623201,"MEAN_MOTION_DOT":0.00024641,"MEAN_MOTION_DDOT":0},{"OBJECT_NAME":"KUIPER-00296","OBJECT_ID":"2026-072Y","EPOCH":"2026-04-09T12:08:32.117856","MEAN_MOTION":15.36547435,"ECCENTRICITY":0.00087342,"INCLINATION":51.8694,"RA_OF_ASC_NODE":149.109,"ARG_OF_PERICENTER":129.6166,"MEAN_ANOMALY":230.5593,"EPHEMERIS_TYPE":0,"CLASSIFICATION_TYPE":"U","NORAD_CAT_ID":68595,"ELEMENT_SET_NO":999,"REV_AT_EPOCH":81,"BSTAR":0.00045426457,"MEAN_MOTION_DOT":0.00016119,"MEAN_MOTION_DDOT":0},{"OBJECT_NAME":"KUIPER-00297","OBJECT_ID":"2026-072Z","EPOCH":"2026-04-09T12:10:51.605472","MEAN_MOTION":15.36072717,"ECCENTRICITY":0.0010385,"INCLINATION":51.8622,"RA_OF_ASC_NODE":149.122,"ARG_OF_PERICENTER":136.1757,"MEAN_ANOMALY":224.0055,"EPHEMERIS_TYPE":0,"CLASSIFICATION_TYPE":"U","NORAD_CAT_ID":68596,"ELEMENT_SET_NO":999,"REV_AT_EPOCH":81,"BSTAR":0.00051707768,"MEAN_MOTION_DOT":0.00018132,"MEAN_MOTION_DDOT":0},{"OBJECT_NAME":"KUIPER-00300","OBJECT_ID":"2026-072AA","EPOCH":"2026-04-09T12:07:31.227456","MEAN_MOTION":15.3672894,"ECCENTRICITY":0.0008297,"INCLINATION":51.8667,"RA_OF_ASC_NODE":149.1055,"ARG_OF_PERICENTER":129.8474,"MEAN_ANOMALY":230.3243,"EPHEMERIS_TYPE":0,"CLASSIFICATION_TYPE":"U","NORAD_CAT_ID":68597,"ELEMENT_SET_NO":999,"REV_AT_EPOCH":81,"BSTAR":0.0004702,"MEAN_MOTION_DOT":0.00016797,"MEAN_MOTION_DDOT":0},{"OBJECT_NAME":"KUIPER-00301","OBJECT_ID":"2026-072AB","EPOCH":"2026-04-09T12:08:59.713152","MEAN_MOTION":15.36405426,"ECCENTRICITY":0.00089685,"INCLINATION":51.8646,"RA_OF_ASC_NODE":149.1136,"ARG_OF_PERICENTER":132.6902,"MEAN_ANOMALY":227.4841,"EPHEMERIS_TYPE":0,"CLASSIFICATION_TYPE":"U","NORAD_CAT_ID":68598,"ELEMENT_SET_NO":999,"REV_AT_EPOCH":81,"BSTAR":0.00052341149,"MEAN_MOTION_DOT":0.00018553,"MEAN_MOTION_DDOT":0},{"OBJECT_NAME":"KUIPER-00304","OBJECT_ID":"2026-072AC","EPOCH":"2026-04-09T10:35:44.145888","MEAN_MOTION":15.36315237,"ECCENTRICITY":0.00096595,"INCLINATION":51.866,"RA_OF_ASC_NODE":149.4287,"ARG_OF_PERICENTER":132.2113,"MEAN_ANOMALY":227.9694,"EPHEMERIS_TYPE":0,"CLASSIFICATION_TYPE":"U","NORAD_CAT_ID":68599,"ELEMENT_SET_NO":999,"REV_AT_EPOCH":80,"BSTAR":0.00056272102,"MEAN_MOTION_DOT":0.00019925,"MEAN_MOTION_DDOT":0},{"OBJECT_NAME":"KUIPER-00317","OBJECT_ID":"2026-072AD","EPOCH":"2026-04-09T12:08:05.772768","MEAN_MOTION":15.36638039,"ECCENTRICITY":0.00087096,"INCLINATION":51.868,"RA_OF_ASC_NODE":149.1085,"ARG_OF_PERICENTER":124.9968,"MEAN_ANOMALY":235.1837,"EPHEMERIS_TYPE":0,"CLASSIFICATION_TYPE":"U","NORAD_CAT_ID":68600,"ELEMENT_SET_NO":999,"REV_AT_EPOCH":81,"BSTAR":0.00065792974,"MEAN_MOTION_DOT":0.00023615,"MEAN_MOTION_DDOT":0},{"OBJECT_NAME":"KUIPER-00320","OBJECT_ID":"2026-072AE","EPOCH":"2026-04-09T12:12:03.987072","MEAN_MOTION":15.35827421,"ECCENTRICITY":0.0011369,"INCLINATION":51.8599,"RA_OF_ASC_NODE":149.127,"ARG_OF_PERICENTER":138.2508,"MEAN_ANOMALY":221.9347,"EPHEMERIS_TYPE":0,"CLASSIFICATION_TYPE":"U","NORAD_CAT_ID":68601,"ELEMENT_SET_NO":999,"REV_AT_EPOCH":81,"BSTAR":0.00053417,"MEAN_MOTION_DOT":0.00018603,"MEAN_MOTION_DDOT":0},{"OBJECT_NAME":"STP-S29A OBJECT A","OBJECT_ID":"2026-074A","EPOCH":"2026-04-10T06:43:30.939744","MEAN_MOTION":15.23145132,"ECCENTRICITY":0.0015882,"INCLINATION":60.0172,"RA_OF_ASC_NODE":78.6513,"ARG_OF_PERICENTER":305.7921,"MEAN_ANOMALY":54.1683,"EPHEMERIS_TYPE":0,"CLASSIFICATION_TYPE":"U","NORAD_CAT_ID":68627,"ELEMENT_SET_NO":999,"REV_AT_EPOCH":43,"BSTAR":0.00042983542,"MEAN_MOTION_DOT":9.998e-5,"MEAN_MOTION_DDOT":0},{"OBJECT_NAME":"STP-S29A OBJECT B","OBJECT_ID":"2026-074B","EPOCH":"2026-04-10T06:43:12.096768","MEAN_MOTION":15.23261715,"ECCENTRICITY":0.00142138,"INCLINATION":60.022,"RA_OF_ASC_NODE":78.6575,"ARG_OF_PERICENTER":308.5279,"MEAN_ANOMALY":51.4526,"EPHEMERIS_TYPE":0,"CLASSIFICATION_TYPE":"U","NORAD_CAT_ID":68628,"ELEMENT_SET_NO":999,"REV_AT_EPOCH":42,"BSTAR":0.00031817593,"MEAN_MOTION_DOT":7.345e-5,"MEAN_MOTION_DDOT":0},{"OBJECT_NAME":"STP-S29A OBJECT C","OBJECT_ID":"2026-074C","EPOCH":"2026-04-10T06:42:08.031168","MEAN_MOTION":15.23674964,"ECCENTRICITY":0.00175595,"INCLINATION":60.021,"RA_OF_ASC_NODE":78.6525,"ARG_OF_PERICENTER":315.5564,"MEAN_ANOMALY":44.4106,"EPHEMERIS_TYPE":0,"CLASSIFICATION_TYPE":"U","NORAD_CAT_ID":68629,"ELEMENT_SET_NO":999,"REV_AT_EPOCH":43,"BSTAR":0.00051527341,"MEAN_MOTION_DOT":0.00012249,"MEAN_MOTION_DDOT":0},{"OBJECT_NAME":"STP-S29A OBJECT D","OBJECT_ID":"2026-074D","EPOCH":"2026-04-10T03:32:19.196160","MEAN_MOTION":15.2399131,"ECCENTRICITY":0.00154172,"INCLINATION":60.0212,"RA_OF_ASC_NODE":79.1531,"ARG_OF_PERICENTER":319.9997,"MEAN_ANOMALY":39.9946,"EPHEMERIS_TYPE":0,"CLASSIFICATION_TYPE":"U","NORAD_CAT_ID":68630,"ELEMENT_SET_NO":999,"REV_AT_EPOCH":40,"BSTAR":0.00021458944,"MEAN_MOTION_DOT":4.972e-5,"MEAN_MOTION_DDOT":0},{"OBJECT_NAME":"STP-S29A OBJECT E","OBJECT_ID":"2026-074E","EPOCH":"2026-04-10T06:41:13.633728","MEAN_MOTION":15.24007286,"ECCENTRICITY":0.00160185,"INCLINATION":60.0207,"RA_OF_ASC_NODE":78.6485,"ARG_OF_PERICENTER":320.2827,"MEAN_ANOMALY":39.7079,"EPHEMERIS_TYPE":0,"CLASSIFICATION_TYPE":"U","NORAD_CAT_ID":68631,"ELEMENT_SET_NO":999,"REV_AT_EPOCH":43,"BSTAR":0.00023925941,"MEAN_MOTION_DOT":5.581e-5,"MEAN_MOTION_DDOT":0}]
